[{"OBJECT_NAME":"STARLINK-3690","OBJECT_ID":"2022-025J","EPOCH":"2026-03-09T06:36:44.498592","MEAN_MOTION":15.30191903,"ECCENTRICITY":0.00013974,"INCLINATION":53.1606,"RA_OF_ASC_NODE":26.2078,"ARG_OF_PERICENTER":104.7016,"MEAN_ANOMALY":255.4139,"EPHEMERIS_TYPE":0,"CLASSIFICATION_TYPE":"U","NORAD_CAT_ID":51964,"ELEMENT_SET_NO":999,"REV_AT_EPOCH":22095,"BSTAR":9.893093e-6,"MEAN_MOTION_DOT":-6.6e-7,"MEAN_MOTION_DDOT":0},{"OBJECT_NAME":"DMSP 5D-2 F14 DEB","OBJECT_ID":"1997-012G","EPOCH":"2026-03-09T18:05:19.087296","MEAN_MOTION":15.2878374,"ECCENTRICITY":0.00491251,"INCLINATION":99.2047,"RA_OF_ASC_NODE":151.8456,"ARG_OF_PERICENTER":247.1908,"MEAN_ANOMALY":112.4133,"EPHEMERIS_TYPE":0,"CLASSIFICATION_TYPE":"U","NORAD_CAT_ID":62936,"ELEMENT_SET_NO":999,"REV_AT_EPOCH":6425,"BSTAR":0.05046686,"MEAN_MOTION_DOT":0.01624988,"MEAN_MOTION_DDOT":0}]
